[{"OBJECT_NAME":"LAPAN-A3","OBJECT_ID":"2016-040E","EPOCH":"2026-03-09T23:01:57.724896","MEAN_MOTION":15.3238951,"ECCENTRICITY":0.00109839,"INCLINATION":97.1488,"RA_OF_ASC_NODE":68.4254,"ARG_OF_PERICENTER":22.062,"MEAN_ANOMALY":338.1093,"EPHEMERIS_TYPE":0,"CLASSIFICATION_TYPE":"U","NORAD_CAT_ID":41603,"ELEMENT_SET_NO":999,"REV_AT_EPOCH":53961,"BSTAR":0.00017567445,"MEAN_MOTION_DOT":5.428e-5,"MEAN_MOTION_DDOT":0},{"OBJECT_NAME":"STARLINK-35200","OBJECT_ID":"2025-223B","EPOCH":"2026-03-09T22:35:50.501472","MEAN_MOTION":15.30206285,"ECCENTRICITY":9.463e-5,"INCLINATION":53.1606,"RA_OF_ASC_NODE":293.0452,"ARG_OF_PERICENTER":88.8161,"MEAN_ANOMALY":271.2948,"EPHEMERIS_TYPE":0,"CLASSIFICATION_TYPE":"U","NORAD_CAT_ID":65855,"ELEMENT_SET_NO":999,"REV_AT_EPOCH":2424,"BSTAR":0.001109,"MEAN_MOTION_DOT":0.00032637,"MEAN_MOTION_DDOT":0}]
